{
    "links": {
        "self": "http://www.neowsapp.com/rest/v1/neo/3788018?api_key=iIulBulltgU6a56xZRHN4H3l9WmuAYTsLGpBGhQ2"
    },
    "id": "3788018",
    "neo_reference_id": "3788018",
    "name": "(2017 UE5)",
    "designation": "2017 UE5",
    "nasa_jpl_url": "http://ssd.jpl.nasa.gov/sbdb.cgi?sstr=3788018",
    "absolute_magnitude_h": 22.9,
    "estimated_diameter": {
        "kilometers": {
            "estimated_diameter_min": 0.0699125232,
            "estimated_diameter_max": 0.1563291544
        },
        "meters": {
            "estimated_diameter_min": 69.9125232246,
            "estimated_diameter_max": 156.3291544087
        },
        "miles": {
            "estimated_diameter_min": 0.0434416145,
            "estimated_diameter_max": 0.097138403
        },
        "feet": {
            "estimated_diameter_min": 229.3718026961,
            "estimated_diameter_max": 512.8909429502
        }
    },
    "is_potentially_hazardous_asteroid": false,
    "close_approach_data": [
        {
            "close_approach_date": "1925-03-24",
            "close_approach_date_full": "1925-Mar-24 08:06",
            "epoch_date_close_approach": -1412956440000,
            "relative_velocity": {
                "kilometers_per_second": "21.0433570073",
                "kilometers_per_hour": "75756.0852261493",
                "miles_per_hour": "47071.8852895482"
            },
            "miss_distance": {
                "astronomical": "0.2573778446",
                "lunar": "100.1199815494",
                "kilometers": "38503177.337351002",
                "miles": "23924764.9913357476"
            },
            "orbiting_body": "Earth"
        },
        {
            "close_approach_date": "2015-04-07",
            "close_approach_date_full": "2015-Apr-07 09:24",
            "epoch_date_close_approach": 1428398640000,
            "relative_velocity": {
                "kilometers_per_second": "27.9826133533",
                "kilometers_per_hour": "100737.40807197",
                "miles_per_hour": "62594.3078100527"
            },
            "miss_distance": {
                "astronomical": "0.4833568066",
                "lunar": "188.0257977674",
                "kilometers": "72309148.717361942",
                "miles": "44930821.5430891196"
            },
            "orbiting_body": "Earth"
        },
        {
            "close_approach_date": "2017-11-05",
            "close_approach_date_full": "2017-Nov-05 20:54",
            "epoch_date_close_approach": 1509915240000,
            "relative_velocity": {
                "kilometers_per_second": "15.5631186391",
                "kilometers_per_hour": "56027.2271007902",
                "miles_per_hour": "34813.1400838216"
            },
            "miss_distance": {
                "astronomical": "0.0524037958",
                "lunar": "20.3850765662",
                "kilometers": "7839496.231594946",
                "miles": "4871237.0760484148"
            },
            "orbiting_body": "Earth"
        }
    ],
    "orbital_data": {
        "orbit_id": "6",
        "orbit_determination_date": "2017-11-06 06:17:56",
        "first_observation_date": "2017-10-22",
        "last_observation_date": "2017-11-06",
        "data_arc_in_days": 15,
        "observations_used": 65,
        "orbit_uncertainty": "8",
        "minimum_orbit_intersection": ".0121823",
        "jupiter_tisserand_invariant": "3.600",
        "epoch_osculation": "2458051.5",
        "eccentricity": ".5948297130043074",
        "semi_major_axis": "1.992850961234323",
        "inclination": "6.036502934257051",
        "ascending_node_longitude": "234.3845051766073",
        "orbital_period": "1027.568204268078",
        "perihelion_distance": ".8074439959029523",
        "perihelion_argument": "232.7078084885005",
        "aphelion_distance": "3.178257926565693",
        "perihelion_time": "2458104.581213893010",
        "mean_anomaly": "341.4034368501166",
        "mean_motion": ".3503417082240521",
        "equinox": "J2000",
        "orbit_class": {
            "orbit_class_type": "APO",
            "orbit_class_description": "Near-Earth asteroid orbits which cross the Earth’s orbit similar to that of 1862 Apollo",
            "orbit_class_range": "a (semi-major axis) > 1.0 AU; q (perihelion) < 1.017 AU"
        }
    },
    "is_sentry_object": false
}